[{"OBJECT_NAME":"OBJECT A","OBJECT_ID":"2024-016A","EPOCH":"2026-03-09T23:08:49.859808","MEAN_MOTION":15.48922607,"ECCENTRICITY":0.00067805,"INCLINATION":97.4468,"RA_OF_ASC_NODE":160.686,"ARG_OF_PERICENTER":66.6312,"MEAN_ANOMALY":293.5651,"EPHEMERIS_TYPE":0,"CLASSIFICATION_TYPE":"U","NORAD_CAT_ID":58820,"ELEMENT_SET_NO":999,"REV_AT_EPOCH":11868,"BSTAR":0.00061930458,"MEAN_MOTION_DOT":0.00033448,"MEAN_MOTION_DDOT":0},{"OBJECT_NAME":"IRIDIUM 82","OBJECT_ID":"1998-051A","EPOCH":"2026-03-09T17:14:32.931744","MEAN_MOTION":15.58179803,"ECCENTRICITY":0.0047439,"INCLINATION":86.3594,"RA_OF_ASC_NODE":336.9899,"ARG_OF_PERICENTER":358.1791,"MEAN_ANOMALY":1.9292,"EPHEMERIS_TYPE":0,"CLASSIFICATION_TYPE":"U","NORAD_CAT_ID":25467,"ELEMENT_SET_NO":999,"REV_AT_EPOCH":46488,"BSTAR":0.0011204022,"MEAN_MOTION_DOT":0.00089782,"MEAN_MOTION_DDOT":0}]
